GLOBALSTAR M001         
1 25162U 98008A   25283.97617889 -.00000020  00000+0  58513-3 0  9993
2 25162  52.0063 356.2085 0001872 133.9973  37.0244 12.38220276258059
GLOBALSTAR M004         
1 25163U 98008B   25284.15706039 -.00000086  00000+0  10094-3 0  9995
2 25163  52.0007  60.3503 0003340 174.1891 357.0085 12.63405188276349
GLOBALSTAR M002         
1 25164U 98008C   25283.82627369 -.00000045  00000+0  62632-3 0  9997
2 25164  52.0025 310.2607 0001407   3.1806 356.9023 11.61512340197507
GLOBALSTAR M003         
1 25165U 98008D   25284.16705863 -.00000174  00000+0 -90719-3 0  9993
2 25165  51.9935 207.3007 0007840 161.0130 339.7575 12.12056190247282
GLOBALSTAR M014         
1 25306U 98023A   25284.15088227 -.00000044  00000+0  63065-3 0  9993
2 25306  51.9825 230.2291 0000396 193.4285 180.1813 11.65482563204691
GLOBALSTAR M006         
1 25307U 98023B   25284.30507560 -.00000056  00000+0  39259-3 0  9998
2 25307  51.9934 286.6548 0003102 320.0434 139.5419 11.58176762230282
GLOBALSTAR M015         
1 25308U 98023C   25284.27978472 -.00000050  00000+0  53741-3 0  9995
2 25308  51.9852  30.5047 0011832 281.6620 101.6403 11.48859094207428
GLOBALSTAR M008         
1 25309U 98023D   25284.28887383 -.00000054  00000+0  32881-3 0  9993
2 25309  51.9959 221.4438 0003266  59.3626  74.1586 12.36073804252207
